{
  "type": "FeatureCollection",
  "features": [
    {
      "type": "Feature",
      "properties": {
        "norad_id": 34540,
        "name": "IRIDIUM 33 DEB",
        "group": "iridium-33-debris",
        "lat": 34.615655628064026,
        "lon": 122.97183563123724,
        "alt_km": 629.6891543991915,
        "timestamp": "2025-12-17T07:00:47.293267+00:00",
        "meta_object_name": "IRIDIUM 33 DEB",
        "meta_object_id": "1997-051JH",
        "meta_epoch": "2025-12-16T22:31:00.894720",
        "meta_mean_motion": 14.75409627,
        "meta_eccentricity": 0.00170863,
        "meta_inclination": 86.3099,
        "meta_ra_of_asc_node": 305.6869,
        "meta_arg_of_pericenter": 144.3412,
        "meta_mean_anomaly": 281.7775,
        "meta_ephemeris_type": 0,
        "meta_classification_type": "U",
        "meta_norad_cat_id": 34540,
        "meta_element_set_no": 999,
        "meta_rev_at_epoch": 89083,
        "meta_bstar": 0.0012022226,
        "meta_mean_motion_dot": 8.208e-05,
        "meta_mean_motion_ddot": 0,
        "tle_line1": "1 34540U 97051JH  25350.93820480  .00008208  00000+0  12022-2 0  9993",
        "tle_line2": "2 34540  86.3099 305.6869 0017086 144.3412 281.7775 14.75409627890831"
      },
      "geometry": {
        "type": "Point",
        "coordinates": [
          122.97183563123724,
          34.615655628064026
        ]
      }
    },
    {
      "type": "Feature",
      "properties": {
        "norad_id": 34648,
        "name": "IRIDIUM 33 DEB",
        "group": "iridium-33-debris",
        "lat": -30.66451637710824,
        "lon": -82.0364350645781,
        "alt_km": 765.3498776954266,
        "timestamp": "2025-12-17T07:00:47.293278+00:00",
        "meta_object_name": "IRIDIUM 33 DEB",
        "meta_object_id": "1997-051JZ",
        "meta_epoch": "2025-12-16T12:26:32.846208",
        "meta_mean_motion": 14.11615527,
        "meta_eccentricity": 0.01816215,
        "meta_inclination": 86.3905,
        "meta_ra_of_asc_node": 280.4208,
        "meta_arg_of_pericenter": 287.0786,
        "meta_mean_anomaly": 71.0574,
        "meta_ephemeris_type": 0,
        "meta_classification_type": "U",
        "meta_norad_cat_id": 34648,
        "meta_element_set_no": 999,
        "meta_rev_at_epoch": 85014,
        "meta_bstar": 0.0054188563,
        "meta_mean_motion_dot": 0.00011523,
        "meta_mean_motion_ddot": 0,
        "tle_line1": "1 34648U 97051JZ  25350.51843572  .00011523  00000+0  54189-2 0  9997",
        "tle_line2": "2 34648  86.3905 280.4208 0181621 287.0786  71.0574 14.11615527850144"
      },
      "geometry": {
        "type": "Point",
        "coordinates": [
          -82.0364350645781,
          -30.66451637710824
        ]
      }
    },
    {
      "type": "Feature",
      "properties": {
        "norad_id": 34651,
        "name": "IRIDIUM 33 DEB",
        "group": "iridium-33-debris",
        "lat": -80.20682647308506,
        "lon": -19.231973510910834,
        "alt_km": 779.0775992641211,
        "timestamp": "2025-12-17T07:00:47.293289+00:00",
        "meta_object_name": "IRIDIUM 33 DEB",
        "meta_object_id": "1997-051KC",
        "meta_epoch": "2025-12-16T21:22:39.844416",
        "meta_mean_motion": 14.25886119,
        "meta_eccentricity": 0.01422439,
        "meta_inclination": 86.2825,
        "meta_ra_of_asc_node": 138.8115,
        "meta_arg_of_pericenter": 190.7823,
        "meta_mean_anomaly": 169.0312,
        "meta_ephemeris_type": 0,
        "meta_classification_type": "U",
        "meta_norad_cat_id": 34651,
        "meta_element_set_no": 999,
        "meta_rev_at_epoch": 85955,
        "meta_bstar": 0.0025009012,
        "meta_mean_motion_dot": 6.641e-05,
        "meta_mean_motion_ddot": 0,
        "tle_line1": "1 34651U 97051KC  25350.89073894  .00006641  00000+0  25009-2 0  9998",
        "tle_line2": "2 34651  86.2825 138.8115 0142243 190.7823 169.0312 14.25886119859554"
      },
      "geometry": {
        "type": "Point",
        "coordinates": [
          -19.231973510910834,
          -80.20682647308506
        ]
      }
    },
    {
      "type": "Feature",
      "properties": {
        "norad_id": 34652,
        "name": "IRIDIUM 33 DEB",
        "group": "iridium-33-debris",
        "lat": -3.0743082563005943,
        "lon": 158.17225056716958,
        "alt_km": 692.5753543804467,
        "timestamp": "2025-12-17T07:00:47.293300+00:00",
        "meta_object_name": "IRIDIUM 33 DEB",
        "meta_object_id": "1997-051KD",
        "meta_epoch": "2025-12-16T23:51:48.766752",
        "meta_mean_motion": 14.62098936,
        "meta_eccentricity": 0.00256549,
        "meta_inclination": 86.3313,
        "meta_ra_of_asc_node": 338.1074,
        "meta_arg_of_pericenter": 282.6722,
        "meta_mean_anomaly": 133.581,
        "meta_ephemeris_type": 0,
        "meta_classification_type": "U",
        "meta_norad_cat_id": 34652,
        "meta_element_set_no": 999,
        "meta_rev_at_epoch": 88546,
        "meta_bstar": 0.00074140559,
        "meta_mean_motion_dot": 3.763e-05,
        "meta_mean_motion_ddot": 0,
        "tle_line1": "1 34652U 97051KD  25350.99431443  .00003763  00000+0  74141-3 0  9992",
        "tle_line2": "2 34652  86.3313 338.1074 0025654 282.6722 133.5810 14.62098936885463"
      },
      "geometry": {
        "type": "Point",
        "coordinates": [
          158.17225056716958,
          -3.0743082563005943
        ]
      }
    },
    {
      "type": "Feature",
      "properties": {
        "norad_id": 34690,
        "name": "IRIDIUM 33 DEB",
        "group": "iridium-33-debris",
        "lat": -67.96646637541478,
        "lon": 26.009193868638775,
        "alt_km": 715.4281162519574,
        "timestamp": "2025-12-17T07:00:47.293311+00:00",
        "meta_object_name": "IRIDIUM 33 DEB",
        "meta_object_id": "1997-051KM",
        "meta_epoch": "2025-12-16T09:55:15.693312",
        "meta_mean_motion": 14.55109734,
        "meta_eccentricity": 0.00103944,
        "meta_inclination": 86.3782,
        "meta_ra_of_asc_node": 35.3951,
        "meta_arg_of_pericenter": 17.6085,
        "meta_mean_anomaly": 353.5681,
        "meta_ephemeris_type": 0,
        "meta_classification_type": "U",
        "meta_norad_cat_id": 34690,
        "meta_element_set_no": 999,
        "meta_rev_at_epoch": 88148,
        "meta_bstar": 0.00032549002,
        "meta_mean_motion_dot": 1.426e-05,
        "meta_mean_motion_ddot": 0,
        "tle_line1": "1 34690U 97051KM  25350.41337608  .00001426  00000+0  32549-3 0  9999",
        "tle_line2": "2 34690  86.3782  35.3951 0010394  17.6085 353.5681 14.55109734881487"
      },
      "geometry": {
        "type": "Point",
        "coordinates": [
          26.009193868638775,
          -67.96646637541478
        ]
      }
    },
    {
      "type": "Feature",
      "properties": {
        "norad_id": 34693,
        "name": "IRIDIUM 33 DEB",
        "group": "iridium-33-debris",
        "lat": 77.75732648212711,
        "lon": 104.23123238169264,
        "alt_km": 466.8809327925783,
        "timestamp": "2025-12-17T07:00:47.293321+00:00",
        "meta_object_name": "IRIDIUM 33 DEB",
        "meta_object_id": "1997-051KQ",
        "meta_epoch": "2025-12-16T21:25:18.444576",
        "meta_mean_motion": 15.28941995,
        "meta_eccentricity": 0.00125804,
        "meta_inclination": 86.3045,
        "meta_ra_of_asc_node": 301.7597,
        "meta_arg_of_pericenter": 45.7689,
        "meta_mean_anomaly": 17.5251,
        "meta_ephemeris_type": 0,
        "meta_classification_type": "U",
        "meta_norad_cat_id": 34693,
        "meta_element_set_no": 999,
        "meta_rev_at_epoch": 88978,
        "meta_bstar": 0.0037873204,
        "meta_mean_motion_dot": 0.00108025,
        "meta_mean_motion_ddot": 0,
        "tle_line1": "1 34693U 97051KQ  25350.89257459  .00108025  00000+0  37873-2 0  9996",
        "tle_line2": "2 34693  86.3045 301.7597 0012580  45.7689  17.5251 15.28941995889784"
      },
      "geometry": {
        "type": "Point",
        "coordinates": [
          104.23123238169264,
          77.75732648212711
        ]
      }
    },
    {
      "type": "Feature",
      "properties": {
        "norad_id": 34696,
        "name": "IRIDIUM 33 DEB",
        "group": "iridium-33-debris",
        "lat": -56.86355190352403,
        "lon": -148.7296298706294,
        "alt_km": 678.2228288343686,
        "timestamp": "2025-12-17T07:00:47.293332+00:00",
        "meta_object_name": "IRIDIUM 33 DEB",
        "meta_object_id": "1997-051KT",
        "meta_epoch": "2025-12-16T02:20:41.724096",
        "meta_mean_motion": 14.6527848,
        "meta_eccentricity": 0.00739247,
        "meta_inclination": 86.1857,
        "meta_ra_of_asc_node": 25.9602,
        "meta_arg_of_pericenter": 156.1552,
        "meta_mean_anomaly": 262.9531,
        "meta_ephemeris_type": 0,
        "meta_classification_type": "U",
        "meta_norad_cat_id": 34696,
        "meta_element_set_no": 999,
        "meta_rev_at_epoch": 86722,
        "meta_bstar": 0.0030139248,
        "meta_mean_motion_dot": 0.00016962,
        "meta_mean_motion_ddot": 0,
        "tle_line1": "1 34696U 97051KT  25350.09770514  .00016962  00000+0  30139-2 0  9999",
        "tle_line2": "2 34696  86.1857  25.9602 0073924 156.1552 262.9531 14.65278480867227"
      },
      "geometry": {
        "type": "Point",
        "coordinates": [
          -148.7296298706294,
          -56.86355190352403
        ]
      }
    }
  ]
}